{"type": "FeatureCollection", "features": [ {"type": "Feature", "properties": {"norad_id": 37834, "name": "INTELSAT 18 (IS-18)", "group": "intelsat", "lat": 0.022908568190945233, "lon": 76.05300574142434, "alt_km": 35793.94368689122, "timestamp": "2025-12-12T11:38:31.083978+00:00", "meta": {"OBJECT_NAME": "INTELSAT 18 (IS-18)", "OBJECT_ID": "2011-056A", "EPOCH": "2025-12-12T02:21:06.000768", "MEAN_MOTION": 1.00271552, "ECCENTRICITY": 0.0001903, "INCLINATION": 0.0129, "RA_OF_ASC_NODE": 298.6246, "ARG_OF_PERICENTER": 331.1207, "MEAN_ANOMALY": 26.5725, "EPHEMERIS_TYPE": 0, "CLASSIFICATION_TYPE": "U", "NORAD_CAT_ID": 37834, "ELEMENT_SET_NO": 999, "REV_AT_EPOCH": 5193, "BSTAR": 0, "MEAN_MOTION_DOT": 6.2e-07, "MEAN_MOTION_DDOT": 0}, "tle": {"line1": "1 37834U 11056A   25346.09798612  .00000062  00000+0  00000+0 0  9996", "line2": "2 37834   0.0129 298.6246 0001903 331.1207  26.5725  1.00271552 51934"}}, "geometry": {"type": "Point", "coordinates": [76.05300574142434, 0.022908568190945233]}}, {"type": "Feature", "properties": {"norad_id": 38098, "name": "INTELSAT 22 (IS-22)", "group": "intelsat", "lat": -0.005963893948211632, "lon": -31.807538214129156, "alt_km": 35782.605888850914, "timestamp": "2025-12-12T11:38:31.083990+00:00", "meta": {"OBJECT_NAME": "INTELSAT 22 (IS-22)", "OBJECT_ID": "2012-011A", "EPOCH": "2025-12-12T01:59:38.789376", "MEAN_MOTION": 1.00271162, "ECCENTRICITY": 0.0001739, "INCLINATION": 0.0016, "RA_OF_ASC_NODE": 358.3788, "ARG_OF_PERICENTER": 269.5928, "MEAN_ANOMALY": 275.096, "EPHEMERIS_TYPE": 0, "CLASSIFICATION_TYPE": "U", "NORAD_CAT_ID": 38098, "ELEMENT_SET_NO": 999, "REV_AT_EPOCH": 531, "BSTAR": 0, "MEAN_MOTION_DOT": -5e-07, "MEAN_MOTION_DDOT": 0}, "tle": {"line1": "1 38098U 12011A   25346.08308784 -.00000050  00000+0  00000+0 0  9995", "line2": "2 38098   0.0016 358.3788 0001739 269.5928 275.0960  1.00271162  5318"}}, "geometry": {"type": "Point", "coordinates": [-31.807538214129156, -0.005963893948211632]}}, {"type": "Feature", "properties": {"norad_id": 38356, "name": "INTELSAT 19 (IS-19)", "group": "intelsat", "lat": 0.026055925200426103, "lon": 62.08291765548019, "alt_km": 35798.83382655474, "timestamp": "2025-12-12T11:38:31.084002+00:00", "meta": {"OBJECT_NAME": "INTELSAT 19 (IS-19)", "OBJECT_ID": "2012-030A", "EPOCH": "2025-12-12T02:16:58.895904", "MEAN_MOTION": 1.00272318, "ECCENTRICITY": 0.0003434, "INCLINATION": 0.0089, "RA_OF_ASC_NODE": 352.3615, "ARG_OF_PERICENTER": 277.1382, "MEAN_ANOMALY": 11.8016, "EPHEMERIS_TYPE": 0, "CLASSIFICATION_TYPE": "U", "NORAD_CAT_ID": 38356, "ELEMENT_SET_NO": 999, "REV_AT_EPOCH": 4857, "BSTAR": 0, "MEAN_MOTION_DOT": -4.7e-07, "MEAN_MOTION_DDOT": 0}, "tle": {"line1": "1 38356U 12030A   25346.09512611 -.00000047  00000+0  00000+0 0  9996", "line2": "2 38356   0.0089 352.3615 0003434 277.1382  11.8016  1.00272318 48578"}}, "geometry": {"type": "Point", "coordinates": [62.08291765548019, 0.026055925200426103]}}, {"type": "Feature", "properties": {"norad_id": 38740, "name": "INTELSAT 20 (IS-20)", "group": "intelsat", "lat": -0.0001843516189579084, "lon": -35.41995886702969, "alt_km": 35795.18524630428, "timestamp": "2025-12-12T11:38:31.084014+00:00", "meta": {"OBJECT_NAME": "INTELSAT 20 (IS-20)", "OBJECT_ID": "2012-043A", "EPOCH": "2025-12-11T19:58:55.649856", "MEAN_MOTION": 1.00270334, "ECCENTRICITY": 0.00027081, "INCLINATION": 0.0053, "RA_OF_ASC_NODE": 83.8279, "ARG_OF_PERICENTER": 100.6018, "MEAN_ANOMALY": 264.5986, "EPHEMERIS_TYPE": 0, "CLASSIFICATION_TYPE": "U", "NORAD_CAT_ID": 38740, "ELEMENT_SET_NO": 999, "REV_AT_EPOCH": 4887, "BSTAR": 0, "MEAN_MOTION_DOT": -1.6e-07, "MEAN_MOTION_DDOT": 0}, "tle": {"line1": "1 38740U 12043A   25345.83258854 -.00000016  00000+0  00000+0 0  9990", "line2": "2 38740   0.0053  83.8279 0002708 100.6018 264.5986  1.00270334 48879"}}, "geometry": {"type": "Point", "coordinates": [-35.41995886702969, -0.0001843516189579084]}}, {"type": "Feature", "properties": {"norad_id": 38749, "name": "INTELSAT 21 (IS-21)", "group": "intelsat", "lat": 0.004351908667490332, "lon": -161.961386697456, "alt_km": 35781.980327691985, "timestamp": "2025-12-12T11:38:31.084026+00:00", "meta": {"OBJECT_NAME": "INTELSAT 21 (IS-21)", "OBJECT_ID": "2012-045A", "EPOCH": "2025-12-12T02:55:55.164864", "MEAN_MOTION": 1.00272507, "ECCENTRICITY": 0.0001845, "INCLINATION": 0.0242, "RA_OF_ASC_NODE": 65.3043, "ARG_OF_PERICENTER": 192.4287, "MEAN_ANOMALY": 169.3214, "EPHEMERIS_TYPE": 0, "CLASSIFICATION_TYPE": "U", "NORAD_CAT_ID": 38749, "ELEMENT_SET_NO": 999, "REV_AT_EPOCH": 4864, "BSTAR": 0, "MEAN_MOTION_DOT": -2.76e-06, "MEAN_MOTION_DDOT": 0}, "tle": {"line1": "1 38749U 12045A   25346.12216626 -.00000276  00000+0  00000+0 0  9993", "line2": "2 38749   0.0242  65.3043 0001845 192.4287 169.3214  1.00272507 48645"}}, "geometry": {"type": "Point", "coordinates": [-161.961386697456, 0.004351908667490332]}}, {"type": "Feature", "properties": {"norad_id": 38867, "name": "INTELSAT 23 (IS-23)", "group": "intelsat", "lat": 0.02207758079043496, "lon": -156.9444055372313, "alt_km": 35781.64291961279, "timestamp": "2025-12-12T11:38:31.084037+00:00", "meta": {"OBJECT_NAME": "INTELSAT 23 (IS-23)", "OBJECT_ID": "2012-057A", "EPOCH": "2025-12-12T02:57:17.535168", "MEAN_MOTION": 1.00272877, "ECCENTRICITY": 0.000106, "INCLINATION": 0.0432, "RA_OF_ASC_NODE": 96.5313, "ARG_OF_PERICENTER": 127.5324, "MEAN_ANOMALY": 208.3374, "EPHEMERIS_TYPE": 0, "CLASSIFICATION_TYPE": "U", "NORAD_CAT_ID": 38867, "ELEMENT_SET_NO": 999, "REV_AT_EPOCH": 4807, "BSTAR": 0, "MEAN_MOTION_DOT": -2.75e-06, "MEAN_MOTION_DDOT": 0}, "tle": {"line1": "1 38867U 12057A   25346.12311962 -.00000275  00000+0  00000+0 0  9995", "line2": "2 38867   0.0432  96.5313 0001060 127.5324 208.3374  1.00272877 48071"}}, "geometry": {"type": "Point", "coordinates": [-156.9444055372313, 0.02207758079043496]}}, {"type": "Feature", "properties": {"norad_id": 39360, "name": "FM-6", "group": "intelsat", "lat": 0.006043267635981446, "lon": 139.89012689973057, "alt_km": 35776.03119897834, "timestamp": "2025-12-12T11:38:31.084049+00:00", "meta": {"OBJECT_NAME": "FM-6", "OBJECT_ID": "2013-058A", "EPOCH": "2025-12-12T03:46:38.737056", "MEAN_MOTION": 1.002731, "ECCENTRICITY": 0.0002895, "INCLINATION": 0.0112, "RA_OF_ASC_NODE": 74.0155, "ARG_OF_PERICENTER": 103.1102, "MEAN_ANOMALY": 204.4975, "EPHEMERIS_TYPE": 0, "CLASSIFICATION_TYPE": "U", "NORAD_CAT_ID": 39360, "ELEMENT_SET_NO": 999, "REV_AT_EPOCH": 4419, "BSTAR": 0, "MEAN_MOTION_DOT": -8e-08, "MEAN_MOTION_DDOT": 0}, "tle": {"line1": "1 39360U 13058A   25346.15739279 -.00000008  00000+0  00000+0 0  9998", "line2": "2 39360   0.0112  74.0155 0002895 103.1102 204.4975  1.00273100 44194"}}, "geometry": {"type": "Point", "coordinates": [139.89012689973057, 0.006043267635981446]}}, {"type": "Feature", "properties": {"norad_id": 40271, "name": "INTELSAT 30 (IS-30)", "group": "intelsat", "lat": 0.015673745995707342, "lon": 161.00805340914408, "alt_km": 35783.72464438981, "timestamp": "2025-12-12T11:38:31.084060+00:00", "meta": {"OBJECT_NAME": "INTELSAT 30 (IS-30)", "OBJECT_ID": "2014-062A", "EPOCH": "2025-12-11T08:43:38.851968", "MEAN_MOTION": 1.00271845, "ECCENTRICITY": 0.00015432, "INCLINATION": 0.0188, "RA_OF_ASC_NODE": 35.8315, "ARG_OF_PERICENTER": 56.6474, "MEAN_ANOMALY": 23.6951, "EPHEMERIS_TYPE": 0, "CLASSIFICATION_TYPE": "U", "NORAD_CAT_ID": 40271, "ELEMENT_SET_NO": 999, "REV_AT_EPOCH": 490, "BSTAR": 0, "MEAN_MOTION_DOT": -1.44e-06, "MEAN_MOTION_DDOT": 0}, "tle": {"line1": "1 40271U 14062A   25345.36364412 -.00000144  00000+0  00000+0 0  9993", "line2": "2 40271   0.0188  35.8315 0001543  56.6474  23.6951  1.00271845  4900"}}, "geometry": {"type": "Point", "coordinates": [161.00805340914408, 0.015673745995707342]}}, {"type": "Feature", "properties": {"norad_id": 40333, "name": "DIRECTV 14", "group": "intelsat", "lat": -0.007574193521469486, "lon": 156.84644786648627, "alt_km": 35784.142046084664, "timestamp": "2025-12-12T11:38:31.084072+00:00", "meta": {"OBJECT_NAME": "DIRECTV 14", "OBJECT_ID": "2014-078B", "EPOCH": "2025-12-11T14:45:07.933824", "MEAN_MOTION": 1.00273916, "ECCENTRICITY": 4.131e-05, "INCLINATION": 0.0158, "RA_OF_ASC_NODE": 316.5152, "ARG_OF_PERICENTER": 238.3752, "MEAN_ANOMALY": 7.7536, "EPHEMERIS_TYPE": 0, "CLASSIFICATION_TYPE": "U", "NORAD_CAT_ID": 40333, "ELEMENT_SET_NO": 999, "REV_AT_EPOCH": 4016, "BSTAR": 0, "MEAN_MOTION_DOT": -1.18e-06, "MEAN_MOTION_DDOT": 0}, "tle": {"line1": "1 40333U 14078B   25345.61467516 -.00000118  00000+0  00000+0 0  9997", "line2": "2 40333   0.0158 316.5152 0000413 238.3752   7.7536  1.00273916 40168"}}, "geometry": {"type": "Point", "coordinates": [156.84644786648627, -0.007574193521469486]}}, {"type": "Feature", "properties": {"norad_id": 40663, "name": "DIRECTV 15", "group": "intelsat", "lat": 0.03464875881667033, "lon": 153.18790162712523, "alt_km": 35786.01685291342, "timestamp": "2025-12-12T11:38:31.084083+00:00", "meta": {"OBJECT_NAME": "DIRECTV 15", "OBJECT_ID": "2015-026A", "EPOCH": "2025-12-11T21:34:58.682784", "MEAN_MOTION": 1.00271604, "ECCENTRICITY": 2.2e-05, "INCLINATION": 0.0402, "RA_OF_ASC_NODE": 85.3093, "ARG_OF_PERICENTER": 150.3651, "MEAN_ANOMALY": 66.0596, "EPHEMERIS_TYPE": 0, "CLASSIFICATION_TYPE": "U", "NORAD_CAT_ID": 40663, "ELEMENT_SET_NO": 999, "REV_AT_EPOCH": 3858, "BSTAR": 0, "MEAN_MOTION_DOT": -9.4e-07, "MEAN_MOTION_DDOT": 0}, "tle": {"line1": "1 40663U 15026A   25345.89929031 -.00000094  00000+0  00000+0 0  9995", "line2": "2 40663   0.0402  85.3093 0000220 150.3651  66.0596  1.00271604 38587"}}, "geometry": {"type": "Point", "coordinates": [153.18790162712523, 0.03464875881667033]}}]}